TIANWANG 1C (TW-1C)     
1 40926U 15051B   17255.08296936  .00019726  00000-0  43236-3 0  9992
2 40926  97.2223 294.0018 0010345 203.1681 241.0478 15.44068929110327
TIANWANG 1B (TW-1B)     
1 40927U 15051C   17254.89892595  .00011160  00000-0  25548-3 0  9994
2 40927  97.2301 293.7953 0009876 217.0479 267.5302 15.42908085110238
TIANWANG 1A (TW-1A)     
1 40928U 15051D   17254.78314288  .00005001  00000-0  14136-3 0  9999
2 40928  97.2197 289.0391 0010687 241.8810 243.3937 15.36733207109994
LAPAN-A2 (IO-86)        
1 40931U 15052B   17254.70413822  .00000518  00000-0 -16940-4 0  9995
2 40931   6.0013 335.7917 0013004  24.9519 335.1223 14.76540699105772
LQSAT                   
1 40958U 15057A   17255.06362980  .00000179  00000-0  35613-4 0  9997
2 40958  97.9722 328.8399 0019007 144.1681 216.0811 14.72984615103907
CHUBUSAT-2              
1 41338U 16012B   17254.47448536  .00000824  00000-0  58138-4 0  9992
2 41338  31.0033 284.2269 0013911 193.7687 166.2570 14.99798014 85956
CHUBUSAT-3              
1 41339U 16012C   17255.12297646  .00000911  00000-0  64700-4 0  9999
2 41339  31.0111 279.1146 0013518 208.1233 151.8696 15.00000993 86036
OUFTI-1                 
1 41458U 16025C   17255.23962098  .00004341  00000-0  23387-3 0  9993
2 41458  98.1784 297.7915 0171918 359.5067   0.5949 15.03565942 75653
E-ST@R-II               
1 41459U 16025D   17254.93751822  .00003489  00000-0  18892-3 0  9998
2 41459  98.1761 297.3996 0173515   0.4677 359.6680 15.03367561 75600
AAUSAT 4                
1 41460U 16025E   17255.08045558  .00006607  00000-0  35226-3 0  9994
2 41460  98.1700 297.7116 0166031 358.0661   1.9870 15.04396841 75650
NUSAT 1 (LO-87)         
1 41557U 16033B   17254.89704794  .00002938  00000-0  11218-3 0  9990
2 41557  97.4582 334.4067 0015615  64.8407 295.4450 15.27352439 71663
BEESAT-4                
1 41619U 16040W   17254.84131117  .00002814  00000-0  12952-3 0  9994
2 41619  97.4539 316.3684 0013472 121.9766 238.2781 15.21073861 55768
PRATHAM                 
1 41783U 16059A   17254.75594197  .00000126  00000-0  33957-4 0  9990
2 41783  98.1588 315.1971 0032416 248.5146 111.2598 14.62857399 51251
ALSAT 1N                
1 41789U 16059G   17255.01451341  .00000245  00000-0  55764-4 0  9991
2 41789  98.1588 316.1212 0027038 240.9987 118.8525 14.64074188 51318
NAYIF-1 (EO-88)         
1 42017U 17008BX  17254.89165854  .00003050  00000-0  13150-3 0  9996
2 42017  97.4867 316.1571 0004924 278.7946  81.2733 15.23318508 31681
LILACSAT-1              
1 42725U 98067ME  17255.17804565  .00019336  00000-0  26501-3 0  9995
2 42725  51.6399 323.3425 0006106 284.5544  75.4771 15.57371569 17022
MAX VALIER SAT          
1 42778U 17036P   17254.89272805  .00002086  00000-0  98357-4 0  9997
2 42778  97.4432 313.6835 0011819 330.4040  29.6525 15.20549203 12207
